{"type": "FeatureCollection", "features": [ {"type": "Feature", "properties": {"norad_id": 35135, "name": "FENGYUN 1C DEB", "group": "fengyun-1c-debris", "lat": 78.51186560323939, "lon": -46.47867956993698, "alt_km": 867.3275167866059, "timestamp": "2025-12-18T17:50:15.243980+00:00", "meta": {"OBJECT_NAME": "FENGYUN 1C DEB", "OBJECT_ID": "1999-025DLP", "EPOCH": "2025-12-16T18:10:55.660224", "MEAN_MOTION": 14.22547917, "ECCENTRICITY": 0.00807653, "INCLINATION": 98.5647, "RA_OF_ASC_NODE": 359.4515, "ARG_OF_PERICENTER": 272.6039, "MEAN_ANOMALY": 86.5896, "EPHEMERIS_TYPE": 0, "CLASSIFICATION_TYPE": "U", "NORAD_CAT_ID": 35135, "ELEMENT_SET_NO": 999, "REV_AT_EPOCH": 87881, "BSTAR": 0.00044907129, "MEAN_MOTION_DOT": 9.93e-06, "MEAN_MOTION_DDOT": 0}, "tle": {"line1": "1 35135U 99025DLP 25350.75758866  .00000993  00000+0  44907-3 0  9996", "line2": "2 35135  98.5647 359.4515 0080765 272.6039  86.5896 14.22547917878811"}}, "geometry": {"type": "Point", "coordinates": [-46.47867956993698, 78.51186560323939]}}, {"type": "Feature", "properties": {"norad_id": 35139, "name": "FENGYUN 1C DEB", "group": "fengyun-1c-debris", "lat": 35.75966717854145, "lon": -175.9596354525509, "alt_km": 854.2736882712361, "timestamp": "2025-12-18T17:50:15.243990+00:00", "meta": {"OBJECT_NAME": "FENGYUN 1C DEB", "OBJECT_ID": "1999-025DLT", "EPOCH": "2025-12-17T05:40:19.572096", "MEAN_MOTION": 14.2110105, "ECCENTRICITY": 0.0067913, "INCLINATION": 98.584, "RA_OF_ASC_NODE": 356.3312, "ARG_OF_PERICENTER": 284.2558, "MEAN_ANOMALY": 75.1083, "EPHEMERIS_TYPE": 0, "CLASSIFICATION_TYPE": "U", "NORAD_CAT_ID": 35139, "ELEMENT_SET_NO": 999, "REV_AT_EPOCH": 64217, "BSTAR": 0.0003366611, "MEAN_MOTION_DOT": 7.05e-06, "MEAN_MOTION_DDOT": 0}, "tle": {"line1": "1 35139U 99025DLT 25351.23633764  .00000705  00000+0  33666-3 0  9994", "line2": "2 35139  98.5840 356.3312 0067913 284.2558  75.1083 14.21101050642179"}}, "geometry": {"type": "Point", "coordinates": [-175.9596354525509, 35.75966717854145]}}, {"type": "Feature", "properties": {"norad_id": 35140, "name": "FENGYUN 1C DEB", "group": "fengyun-1c-debris", "lat": -53.15574546385533, "lon": 142.4307119395259, "alt_km": 768.6366179868546, "timestamp": "2025-12-18T17:50:15.244000+00:00", "meta": {"OBJECT_NAME": "FENGYUN 1C DEB", "OBJECT_ID": "1999-025DLU", "EPOCH": "2025-12-18T04:53:13.752960", "MEAN_MOTION": 14.21355497, "ECCENTRICITY": 0.02903724, "INCLINATION": 98.445, "RA_OF_ASC_NODE": 333.3496, "ARG_OF_PERICENTER": 310.6842, "MEAN_ANOMALY": 46.9429, "EPHEMERIS_TYPE": 0, "CLASSIFICATION_TYPE": "U", "NORAD_CAT_ID": 35140, "ELEMENT_SET_NO": 999, "REV_AT_EPOCH": 87356, "BSTAR": 0.00018673112, "MEAN_MOTION_DOT": 5.73e-06, "MEAN_MOTION_DDOT": 0}, "tle": {"line1": "1 35140U 99025DLU 25352.20363140  .00000573  00000+0  18673-3 0  9996", "line2": "2 35140  98.4450 333.3496 0290372 310.6842  46.9429 14.21355497873567"}}, "geometry": {"type": "Point", "coordinates": [142.4307119395259, -53.15574546385533]}}, {"type": "Feature", "properties": {"norad_id": 35142, "name": "FENGYUN 1C DEB", "group": "fengyun-1c-debris", "lat": -45.05583947151499, "lon": 155.5539132693392, "alt_km": 863.7774923524885, "timestamp": "2025-12-18T17:50:15.244011+00:00", "meta": {"OBJECT_NAME": "FENGYUN 1C DEB", "OBJECT_ID": "1999-025DLW", "EPOCH": "2025-12-16T06:06:10.234368", "MEAN_MOTION": 13.90508934, "ECCENTRICITY": 0.01077729, "INCLINATION": 99.0452, "RA_OF_ASC_NODE": 342.3158, "ARG_OF_PERICENTER": 204.4667, "MEAN_ANOMALY": 168.1585, "EPHEMERIS_TYPE": 0, "CLASSIFICATION_TYPE": "U", "NORAD_CAT_ID": 35142, "ELEMENT_SET_NO": 999, "REV_AT_EPOCH": 85738, "BSTAR": 0.00020062048, "MEAN_MOTION_DOT": 2.18e-06, "MEAN_MOTION_DDOT": 0}, "tle": {"line1": "1 35142U 99025DLW 25350.25428512  .00000218  00000+0  20062-3 0  9997", "line2": "2 35142  99.0452 342.3158 0107772 204.4667 168.1585 13.90508934857382"}}, "geometry": {"type": "Point", "coordinates": [155.5539132693392, -45.05583947151499]}}, {"type": "Feature", "properties": {"norad_id": 35144, "name": "FENGYUN 1C DEB", "group": "fengyun-1c-debris", "lat": 9.99909316539461, "lon": -70.07338077975358, "alt_km": 715.660095262444, "timestamp": "2025-12-18T17:50:15.244020+00:00", "meta": {"OBJECT_NAME": "FENGYUN 1C DEB", "OBJECT_ID": "1999-025DLY", "EPOCH": "2025-12-15T03:29:25.584864", "MEAN_MOTION": 14.59259684, "ECCENTRICITY": 0.00266192, "INCLINATION": 98.6997, "RA_OF_ASC_NODE": 104.611, "ARG_OF_PERICENTER": 353.8009, "MEAN_ANOMALY": 6.2856, "EPHEMERIS_TYPE": 0, "CLASSIFICATION_TYPE": "U", "NORAD_CAT_ID": 35144, "ELEMENT_SET_NO": 999, "REV_AT_EPOCH": 65248, "BSTAR": 0.0015089834, "MEAN_MOTION_DOT": 7.114e-05, "MEAN_MOTION_DDOT": 0}, "tle": {"line1": "1 35144U 99025DLY 25349.14543501  .00007114  00000+0  15090-2 0  9997", "line2": "2 35144  98.6997 104.6110 0026619 353.8009   6.2856 14.59259684652487"}}, "geometry": {"type": "Point", "coordinates": [-70.07338077975358, 9.99909316539461]}}, {"type": "Feature", "properties": {"norad_id": 35147, "name": "FENGYUN 1C DEB", "group": "fengyun-1c-debris", "lat": -32.6975908705076, "lon": 73.21595978159951, "alt_km": 668.8655165413165, "timestamp": "2025-12-18T17:50:15.244031+00:00", "meta": {"OBJECT_NAME": "FENGYUN 1C DEB", "OBJECT_ID": "1999-025DMB", "EPOCH": "2025-12-17T22:26:41.000928", "MEAN_MOTION": 14.74450974, "ECCENTRICITY": 0.00274772, "INCLINATION": 99.4864, "RA_OF_ASC_NODE": 66.1093, "ARG_OF_PERICENTER": 183.6043, "MEAN_ANOMALY": 176.4967, "EPHEMERIS_TYPE": 0, "CLASSIFICATION_TYPE": "U", "NORAD_CAT_ID": 35147, "ELEMENT_SET_NO": 999, "REV_AT_EPOCH": 74381, "BSTAR": 0.0018360683, "MEAN_MOTION_DOT": 0.00012222, "MEAN_MOTION_DDOT": 0}, "tle": {"line1": "1 35147U 99025DMB 25351.93519677  .00012222  00000+0  18361-2 0  9997", "line2": "2 35147  99.4864  66.1093 0027477 183.6043 176.4967 14.74450974743817"}}, "geometry": {"type": "Point", "coordinates": [73.21595978159951, -32.6975908705076]}}, {"type": "Feature", "properties": {"norad_id": 35152, "name": "FENGYUN 1C DEB", "group": "fengyun-1c-debris", "lat": 71.14612874086762, "lon": 26.09857227180729, "alt_km": 1006.9201411959493, "timestamp": "2025-12-18T17:50:15.244041+00:00", "meta": {"OBJECT_NAME": "FENGYUN 1C DEB", "OBJECT_ID": "1999-025DMG", "EPOCH": "2025-12-16T18:13:57.032832", "MEAN_MOTION": 13.7643783, "ECCENTRICITY": 0.01945259, "INCLINATION": 99.8194, "RA_OF_ASC_NODE": 173.5777, "ARG_OF_PERICENTER": 5.0809, "MEAN_ANOMALY": 355.2255, "EPHEMERIS_TYPE": 0, "CLASSIFICATION_TYPE": "U", "NORAD_CAT_ID": 35152, "ELEMENT_SET_NO": 999, "REV_AT_EPOCH": 62248, "BSTAR": 0.00057948786, "MEAN_MOTION_DOT": 6.03e-06, "MEAN_MOTION_DDOT": 0}, "tle": {"line1": "1 35152U 99025DMG 25350.75968788  .00000603  00000+0  57949-3 0  9999", "line2": "2 35152  99.8194 173.5777 0194525   5.0809 355.2255 13.76437830622484"}}, "geometry": {"type": "Point", "coordinates": [26.09857227180729, 71.14612874086762]}}, {"type": "Feature", "properties": {"norad_id": 35153, "name": "FENGYUN 1C DEB", "group": "fengyun-1c-debris", "lat": -78.3011126900257, "lon": 15.929726615897547, "alt_km": 770.6574825797152, "timestamp": "2025-12-18T17:50:15.244051+00:00", "meta": {"OBJECT_NAME": "FENGYUN 1C DEB", "OBJECT_ID": "1999-025DMH", "EPOCH": "2025-12-15T23:28:42.248928", "MEAN_MOTION": 14.73754659, "ECCENTRICITY": 0.01711481, "INCLINATION": 98.903, "RA_OF_ASC_NODE": 242.0971, "ARG_OF_PERICENTER": 73.1296, "MEAN_ANOMALY": 288.8599, "EPHEMERIS_TYPE": 0, "CLASSIFICATION_TYPE": "U", "NORAD_CAT_ID": 35153, "ELEMENT_SET_NO": 999, "REV_AT_EPOCH": 97265, "BSTAR": 0.00026510273, "MEAN_MOTION_DOT": 2.12e-05, "MEAN_MOTION_DDOT": 0}, "tle": {"line1": "1 35153U 99025DMH 25349.97826677  .00002120  00000+0  26510-3 0  9998", "line2": "2 35153  98.9030 242.0971 0171148  73.1296 288.8599 14.73754659972652"}}, "geometry": {"type": "Point", "coordinates": [15.929726615897547, -78.3011126900257]}}, {"type": "Feature", "properties": {"norad_id": 35154, "name": "FENGYUN 1C DEB", "group": "fengyun-1c-debris", "lat": 71.20294754340566, "lon": -36.19961250039602, "alt_km": 799.0319318748125, "timestamp": "2025-12-18T17:50:15.244061+00:00", "meta": {"OBJECT_NAME": "FENGYUN 1C DEB", "OBJECT_ID": "1999-025DMJ", "EPOCH": "2025-12-18T03:48:47.568096", "MEAN_MOTION": 14.18905648, "ECCENTRICITY": 0.01791641, "INCLINATION": 99.422, "RA_OF_ASC_NODE": 113.9802, "ARG_OF_PERICENTER": 27.2396, "MEAN_ANOMALY": 333.8038, "EPHEMERIS_TYPE": 0, "CLASSIFICATION_TYPE": "U", "NORAD_CAT_ID": 35154, "ELEMENT_SET_NO": 999, "REV_AT_EPOCH": 64654, "BSTAR": 0.00023097044, "MEAN_MOTION_DOT": 5.14e-06, "MEAN_MOTION_DDOT": 0}, "tle": {"line1": "1 35154U 99025DMJ 25352.15888389  .00000514  00000+0  23097-3 0  9993", "line2": "2 35154  99.4220 113.9802 0179164  27.2396 333.8038 14.18905648646546"}}, "geometry": {"type": "Point", "coordinates": [-36.19961250039602, 71.20294754340566]}}, {"type": "Feature", "properties": {"norad_id": 35155, "name": "FENGYUN 1C DEB", "group": "fengyun-1c-debris", "lat": -52.14677194529148, "lon": 173.07456066856213, "alt_km": 853.4176895149349, "timestamp": "2025-12-18T17:50:15.244071+00:00", "meta": {"OBJECT_NAME": "FENGYUN 1C DEB", "OBJECT_ID": "1999-025DMK", "EPOCH": "2025-12-13T11:32:29.448096", "MEAN_MOTION": 14.19285709, "ECCENTRICITY": 0.00260991, "INCLINATION": 98.5012, "RA_OF_ASC_NODE": 359.121, "ARG_OF_PERICENTER": 70.7543, "MEAN_ANOMALY": 289.6454, "EPHEMERIS_TYPE": 0, "CLASSIFICATION_TYPE": "U", "NORAD_CAT_ID": 35155, "ELEMENT_SET_NO": 999, "REV_AT_EPOCH": 72724, "BSTAR": 0.00090034288, "MEAN_MOTION_DOT": 1.854e-05, "MEAN_MOTION_DDOT": 0}, "tle": {"line1": "1 35155U 99025DMK 25347.48089639  .00001854  00000+0  90034-3 0  9998", "line2": "2 35155  98.5012 359.1210 0026099  70.7543 289.6454 14.19285709727245"}}, "geometry": {"type": "Point", "coordinates": [173.07456066856213, -52.14677194529148]}}]}